#aV2020  3 20  0  0  0.00000000     288 DD+AD WGS84 FIT  NGA
## 2097 432000.00000000   300.00000000 58928 0.0000000000000
+   32     1  2  3  4  5  6  7  8  9 10 11 12 13 14 15 16 17
+         18 19 20 21 22 23 24 25 26 27 28 29 30 31 32  0  0
+          0  0  0  0  0  0  0  0  0  0  0  0  0  0  0  0  0
+          0  0  0  0  0  0  0  0  0  0  0  0  0  0  0  0  0
+          0  0  0  0  0  0  0  0  0  0  0  0  0  0  0  0  0
++         2  2  2  2  2  2  2  2  2  2  2  2  2  2  2  2  2
++         2  2  2  2  2  2  2  2  2  2  2  2  2  2  2  0  0
++         0  0  0  0  0  0  0  0  0  0  0  0  0  0  0  0  0
++         0  0  0  0  0  0  0  0  0  0  0  0  0  0  0  0  0
++         0  0  0  0  0  0  0  0  0  0  0  0  0  0  0  0  0
%c cc cc ccc ccc cccc cccc cccc cccc ccccc ccccc ccccc ccccc
%c cc cc ccc ccc cccc cccc cccc cccc ccccc ccccc ccccc ccccc
%f  0.0000000  0.000000000  0.00000000000  0.000000000000000
%f  0.0000000  0.000000000  0.00000000000  0.000000000000000
%i    0    0    0    0      0      0      0      0         0
%i    0    0    0    0      0      0      0      0         0
/*      NGA, ST. LOUIS,MO.                                  
/*   EPHEMERIS COMPUTED FROM 2 DAYS OF DATA                 
/*   EPOCHA v5 SMOOTHER                                     
/*   G1762 IERS2010 SATAF SATAPC                            
*  2020  3 20 11 10  0.00000000
P  1 -15086.676430     20.426123  21680.575556   -331.942043                    
V  1  -7092.081608 -27027.835141  -4539.949422     -0.125328                    
P  2  13678.494104  20904.909335  -8476.337952   -425.119462                    
V  2   1257.743484  11896.193506  29107.205081     -0.066573                    
P  3 -21452.770224  10300.921296  11634.644057   -122.789158                    
V  3   8765.618836 -12264.969819  26987.084242     -0.100519                    
P  4 -24104.687535   1042.388169 -11127.800835    -64.803632                    
V  4 -12883.749416  -6297.983404  27268.300114     -0.052471                    
P  5  12686.796559   9009.697352 -21667.217315     -9.426671                    
V  5 -18389.307302  20067.943131  -2244.338780     -0.006403                    
P  6   6670.968912  25677.676201    700.618739   -235.049612                    
V  6  -2422.659523   -178.299424  32157.315755     -0.084020                    
P  7  -7815.862774  18178.291371 -17188.112974   -239.899180                    
V  7  -7903.609629 -21295.487294 -19088.679580     -0.085557                    
P  8 -25985.335718  -6131.064143    251.877140    -27.750258                    
V  8    262.524114  -2310.133811 -31792.507649     -0.013943                    
P  9 -16599.847319   9493.274692 -18494.432662   -180.450307                    
V  9 -22361.434075  -7044.028868  16483.381868     -0.080859                    
P 10   7790.678364 -21393.088909  13565.474421   -283.384047                    
V 10  13612.050365 -10701.032556 -25074.867689     -0.124846                    
P 11 -21075.442969  -7937.872919  13355.880772   -328.783489                    
V 11  -9342.225873 -15842.122660 -23606.844154      0.107844                    
P 12  21615.017651  -7185.834325  13285.010708    138.644486                    
V 12 -11650.437626  12922.732534  25663.965898     -0.042637                    
P 13  22171.350019  13408.413037  -6160.154582     -4.376609                    
V 13  -7982.940562   -610.721600 -30581.094178      0.028979                    
P 14 -11375.961072 -16876.804900  17500.292043    -25.104801                    
V 14  20801.444052   5613.302204  19126.561436      0.024972                    
P 15  26502.251374   3695.361384    417.823221   -243.706921                    
V 15    353.393703   3597.156065 -30777.949969      0.026145                    
P 16 -12171.465327  -9083.297525 -22039.345003   -137.109006                    
V 16  20812.642486 -17784.470313  -3763.969942     -0.042897                    
P 17    819.004860  15563.966345  21936.856556    235.132064                    
V 17 -25608.271885  -7829.850836   6593.841549      0.063541                    
P 18  11630.108835 -12272.855115 -20488.338789    125.316534                    
V 18   7241.847915  24986.969557 -10880.119012      0.147849                    
P 19   9401.134475  16496.507089  18277.899174   -183.289576                    
V 19 -22715.709950  -7094.291685  17797.724814      0.051386                    
P 20  14486.262442 -21998.954824   2264.069754    527.860761                    
V 20   4890.115668    -72.271173 -31089.551328     -0.000225                    
P 21   5115.742797 -20012.796635 -16050.754086    -25.312357                    
V 21   9180.643918  19878.965333 -20592.232639      0.051572                    
P 22 -19600.731586   2709.175916  17881.452928   -785.443076                    
V 22  12725.155184 -18576.428722  17098.850505      0.000665                    
P 23 -24135.494635   2441.140846 -10877.080147   -128.386770                    
V 23 -13268.457808  -5881.787243  26834.334739      0.027094                    
P 24  16528.469484   1497.808991  20604.209971    -10.584027                    
V 24   7898.828096  25444.435012  -7747.404664     -0.005213                    
P 25  20078.846650 -16700.382471   3701.717001     -8.075259                    
V 25  -1490.507981   5590.996524  31591.242098      0.020068                    
P 26  -3856.490693 -17021.814971 -19990.298216    171.213081                    
V 26  18205.932736 -17794.379299  11878.607024      0.075124                    
P 27 -21363.583629 -12548.647058 -10149.741593   -243.686396                    
V 27  12595.750839   1470.927817 -28369.091934     -0.107298                    
P 28  -8176.623963  20512.655072  15447.790069    731.560225                    
V 28 -15006.154637  10874.792496 -23139.411564     -0.027830                    
P 29  18577.982278  -6330.332770 -17939.643194    -61.029353                    
V 29  21112.065157   8256.634698  18971.849655     -0.092507                    
P 30   -455.625932  25020.344713  -8556.274733   -179.612466                    
V 30  -5865.449223  -9909.998174 -28765.613213     -0.086876                    
P 31  -7834.102257 -25018.473874  -2240.967633    -30.617081                    
V 31   2514.614101  -3549.943311  31817.949406     -0.025192                    
P 32  -2472.109849 -15985.262840  21163.364348    240.575969                    
V 32  26034.955915   5904.572894   7385.352889      0.089981                    
EOF
